YAHSAT 1B               
1 38245U 12016A   19055.84829094  .00000106  00000-0  00000+0 0  9992
2 38245   0.0108 159.1267 0001980 168.4964 179.7561  1.00271834 25155
AEHF-2 (USA 235)        
1 38254U 12019A   19056.16109567 -.00000294  00000-0  00000+0 0  9996
2 38254   1.5167  22.1171 0003903 322.3249 160.7655  1.00271526 24918
JCSAT-13                
1 38331U 12023A   19055.72894172 -.00000377  00000-0  00000+0 0  9993
2 38331   0.0400 295.1925 0001701 129.1239 116.3742  1.00271147 24804
VINASAT-2               
1 38332U 12023B   19056.54077240 -.00000349  00000-0  00000+0 0  9993
2 38332   0.0427 307.9792 0002536  53.1553 120.4580  1.00271299 24859
NIMIQ 6                 
1 38342U 12026A   19056.50452741 -.00000194  00000-0  00000+0 0  9994
2 38342   0.0434 305.0627 0002670  36.1128 264.3968  1.00271359 24835
CHINASAT 2A (ZX 2A)     
1 38352U 12028A   19056.55313382 -.00000312  00000-0  00000+0 0  9991
2 38352   0.0431 284.7273 0003709  77.9321  89.7987  1.00269615 24882
INTELSAT 19 (IS-19)     
1 38356U 12030A   19056.07127522 -.00000077  00000-0  00000+0 0  9992
2 38356   0.0243  77.2437 0003271 279.2033 349.8318  1.00272789 24755
ECHOSTAR 17             
1 38551U 12035A   19056.17308815 -.00000095  00000-0  00000+0 0  9991
2 38551   0.0183 132.7159 0001838 200.2873 136.9123  1.00271900 24366
METEOSAT-10 (MSG-3)     
1 38552U 12035B   19056.35344625  .00000040  00000-0  00000+0 0  9990
2 38552   0.9896  10.5777 0000839  36.7846 243.9409  1.00270047 24455
SES-5                   
1 38652U 12036A   19055.93836949  .00000013  00000-0  00000-0 0  9991
2 38652   0.0207 129.2285 0001930 215.9412 152.0972  1.00272365 17742
TIANLIAN 1-03           
1 38730U 12040A   19056.23537038  .00000089  00000-0  00000+0 0  9996
2 38730   0.1586 269.9733 0003406 136.9807 209.3934  1.00277278 24223
INTELSAT 20 (IS-20)     
1 38740U 12043A   19055.84841218 -.00000045  00000-0  00000-0 0  9998
2 38740   0.0202 136.8032 0002618  50.1351 341.3952  1.00272766 23983
HYLAS 2                 
1 38741U 12043B   19056.10901587  .00000134  00000-0  00000+0 0  9992
2 38741   0.0414 308.8047 0001857  36.9601 239.1518  1.00272469 24084
INTELSAT 21 (IS-21)     
1 38749U 12045A   19056.41055807 -.00000305  00000-0  00000+0 0  9992
2 38749   0.0040 187.3600 0002074 156.2891 261.0997  1.00271799 23877
ASTRA 2F                
1 38778U 12051A   19056.13938326  .00000130  00000-0  00000+0 0  9991
2 38778   0.0638 225.0026 0002265  52.8666 315.1554  1.00272888 23529
GSAT-10                 
1 38779U 12051B   19056.11930970 -.00000185  00000-0  00000+0 0  9998
2 38779   0.0443 299.6468 0000863  87.9536 253.0075  1.00271301 23525
INTELSAT 23 (IS-23)     
1 38867U 12057A   19055.93897632 -.00000305  00000-0  00000-0 0  9993
2 38867   0.0098 114.8260 0001306 237.2772  87.4201  1.00270816 23230
BEIDOU 16               
1 38953U 12059A   19056.11957140 -.00000196  00000-0  00000+0 0  9990
2 38953   1.6280  83.0940 0007479 218.9899 339.6574  1.00271056 23288
LUCH 5B                 
1 38977U 12061A   19055.33729878 -.00000153  00000-0  00000-0 0  9991
2 38977   4.7745  70.6166 0006140 281.6251 266.7906  1.00271259 23407
YAMAL 300K              
1 38978U 12061B   19056.39841203  .00000051  00000-0  00000+0 0  9991
2 38978   0.0154 186.2870 0001522 299.7461 355.3035  1.00272785 23110
STAR ONE C3             
1 38991U 12062A   19056.43891046 -.00000269  00000-0  00000+0 0  9994
2 38991   0.0435 298.6878 0002716  62.1320 237.1717  1.00273339 23092
EUTELSAT 21B            
1 38992U 12062B   19055.84271069  .00000109  00000-0  00000-0 0  9999
2 38992   0.0686  21.6192 0002319 315.1924 142.5398  1.00273837 23080
ECHOSTAR 16             
1 39008U 12065A   19056.01716234 -.00000302  00000-0  00000+0 0  9994
2 39008   0.0191 125.4344 0001989 215.2759 118.5215  1.00271877 23049
CHINASAT 12 (ZX 12)     
1 39017U 12067A   19055.94853691 -.00000227  00000-0  00000-0 0  9993
2 39017   0.0233 116.5428 0002762 218.7668 248.1560  1.00270873 22943
EUTELSAT 70B            
1 39020U 12069A   19056.54060988 -.00000064  00000-0  00000+0 0  9993
2 39020   0.0635   4.7601 0001944 303.0315 112.4691  1.00273122 22850
YAMAL 402               
1 39022U 12070A   19056.54449747  .00000066  00000-0  00000+0 0  9992
2 39022   0.0198 131.8142 0003011 225.3367  48.8375  1.00272151 22849
SKYNET 5D               
1 39034U 12075A   19056.18521503  .00000079  00000-0  00000+0 0  9995
2 39034   0.0749   6.6739 0004165 326.1298 301.3277  1.00272995 22753
MEXSAT 3                
1 39035U 12075B   19055.96296282 -.00000046  00000-0  00000-0 0  9990
2 39035   0.0215 124.9686 0002171 226.4392  34.9435  1.00272227 22415
TDRS 11                 
1 39070U 13004A   19055.50604844  .00000061  00000-0  00000+0 0  9994
2 39070   4.5345 329.2499 0003332 349.7151 202.9381  1.00276499 22211
AMAZONAS 3              
1 39078U 13006A   19055.94086453 -.00000302  00000-0  00000-0 0  9992
2 39078   0.0348 214.9392 0002219 102.7450 114.5060  1.00270023 18110
AZERSPACE 1             
1 39079U 13006B   19055.84351326  .00000113  00000-0  00000+0 0  9994
2 39079   0.0187 130.4596 0002541 250.8810 122.6895  1.00273104 22162
SBIRS GEO-2 (USA 241)   
1 39120U 13011A   19056.36785310  .00000103  00000-0  00000+0 0  9998
2 39120   2.7382 329.7702 0001788  13.6532 324.5108  1.00272295 21827
EUTELSAT 117 WEST A     
1 39122U 13012A   19055.95572093 -.00000033  00000-0  00000-0 0  9991
2 39122   0.0439 292.7638 0002712  52.1461  36.8377  1.00272503 21673
ANIK G1                 
1 39127U 13014A   19055.55894200 -.00000095  00000-0  00000+0 0  9998
2 39127   0.0148 278.4089 0002931  24.0614 305.5585  1.00272141 21481
CHINASAT 11 (ZX 11)     
1 39157U 13020A   19056.55304659 -.00000311  00000-0  00000+0 0  9994
2 39157   0.0211 162.5951 0003984 142.7025 146.8940  1.00272412 21391
EUTELSAT 7B             
1 39163U 13022A   19056.10421787  .00000028  00000-0  00000+0 0  9990
2 39163   0.0470  15.8064 0005891 338.5674 204.7895  1.00273645 21228
WGS F5 (USA 243)        
1 39168U 13024A   19056.09235378 -.00000305  00000-0  00000+0 0  9993
2 39168   0.0089 131.6468 0000596 270.3831  93.3415  1.00272971 21062
SES-6                   
1 39172U 13026A   19056.16650431 -.00000282  00000-0  00000+0 0  9993
2 39172   0.0559 300.6443 0001996  41.6186 191.8750  1.00271100 20953
IRNSS-1A                
1 39199U 13034A   19053.70674282  .00000076  00000-0  00000+0 0  9998
2 39199  29.9040 104.6006 0021229 186.7380 170.4599  1.00270007 20850
MUOS-2                  
1 39206U 13036A   19056.44164633 -.00000144  00000-0  00000+0 0  9994
2 39206   2.9870 343.9263 0058153 359.5907 230.4453  1.00270704 20541
ALPHASAT                
1 39215U 13038A   19056.36785310  .00000117  00000-0  00000+0 0  9997
2 39215   2.1436  23.9273 0002107 321.5694 326.6705  1.00272311 20507
INSAT-3D                
1 39216U 13038B   19056.54929906 -.00000176  00000-0  00000+0 0  9995
2 39216   0.0796 270.4310 0001227  96.6704  67.7990  1.00272885 20548
WGS F6 (USA 244)        
1 39222U 13041A   19056.13404380  .00000069  00000-0  00000+0 0  9995
2 39222   0.0093 139.5913 0000461 261.1450  26.9991  1.00271142 20302
EUTELSAT 25B            
1 39233U 13044A   19055.86854948  .00000122  00000-0  00000-0 0  9999
2 39233   0.0512   1.8615 0001786 341.1702 149.5294  1.00271064 19871
GSAT-7                  
1 39234U 13044B   19056.09853578 -.00000097  00000-0  00000+0 0  9995
2 39234   0.0510 283.6499 0008556   6.7745 333.6649  1.00271542 20135
AMOS-4                  
1 39237U 13045A   19055.92132730 -.00000013  00000-0  00000-0 0  9999
2 39237   0.0129 142.2875 0002393 232.5986 176.2469  1.00272477 20196
AEHF-3 (USA 246)        
1 39256U 13050A   19056.14215944 -.00000202  00000-0  00000+0 0  9999
2 39256   1.3596 310.2524 0007144  31.9500  15.9393  1.00270409 19926
ASTRA 2E                
1 39285U 13056A   19056.13938326  .00000130  00000-0  00000+0 0  9991
2 39285   0.0744  54.8580 0002746 279.5089 258.9829  1.00269195 19829
SIRIUS FM-6             
1 39360U 13058A   19056.39184966 -.00000037  00000-0  00000+0 0  9995
2 39360   0.0158 107.4711 0001396  77.5403 354.8502  1.00273268 19582
RADUGA-1M 3             
1 39375U 13062A   19055.88954653 -.00000059  00000-0  00000+0 0  9991
2 39375   0.0226 196.1045 0002893 143.2543 205.3093  1.00272178 19368
SES-8                   
1 39460U 13071A   19055.91168344 -.00000290  00000-0  00000-0 0  9992
2 39460   0.0545 277.2616 0001771  98.0306 202.3704  1.00272655 17746
INMARSAT 5-F1           
1 39476U 13073A   19056.76160360  .00000008  00000-0  00000+0 0  9990
2 39476   0.0062 131.9286 0000684 228.4856 131.6537  1.00271937 19176
TKSAT-1 (TUPAC KATARI)  
1 39481U 13075A   19056.15717006 -.00000215  00000-0  00000+0 0  9997
2 39481   0.0125 108.8975 0003224 242.8052 132.3678  1.00270908 19082
EXPRESS-AM5             
1 39487U 13077A   19056.17063257 -.00000301  00000-0  00000+0 0  9995
2 39487   0.0476 291.4589 0000961 121.3035 303.4016  1.00271006 19609
GSAT-14                 
1 39498U 14001A   19056.47654069 -.00000097  00000-0  00000+0 0  9997
2 39498   0.0776 273.5845 0004463  29.6830  97.2809  1.00271797 18822
THAICOM 6               
1 39500U 14002A   19055.85976449 -.00000142  00000-0  00000-0 0  9994
2 39500   0.0537 127.2702 0001420 278.2704 136.9096  1.00272002 18694
TDRS 12                 
1 39504U 14004A   19056.43515674 -.00000287  00000-0  00000+0 0  9993
2 39504   5.2541 336.3301 0002846 342.1505 311.9252  1.00263253 18687
ABS-2                   
1 39508U 14006A   19055.86195365 -.00000107  00000-0  00000-0 0  9998
2 39508   0.0658 290.6612 0002970  52.7184 196.2546  1.00274666 18539
ATHENA-FIDUS            
1 39509U 14006B   19056.11032439  .00000134  00000-0  00000+0 0  9998
2 39509   0.0117 128.2892 0001001 240.7137 223.1504  1.00272656 18730
